[{"OBJECT_NAME":"STARLINK-1964","OBJECT_ID":"2021-009T","EPOCH":"2026-03-09T21:31:58.383264","MEAN_MOTION":15.67134759,"ECCENTRICITY":0.00046841,"INCLINATION":53.045,"RA_OF_ASC_NODE":328.1813,"ARG_OF_PERICENTER":312.9393,"MEAN_ANOMALY":47.1229,"EPHEMERIS_TYPE":0,"CLASSIFICATION_TYPE":"U","NORAD_CAT_ID":47565,"ELEMENT_SET_NO":999,"REV_AT_EPOCH":28156,"BSTAR":0.00093079288,"MEAN_MOTION_DOT":0.00102212,"MEAN_MOTION_DDOT":0},{"OBJECT_NAME":"STARLINK-11472 [DTC]","OBJECT_ID":"2024-217L","EPOCH":"2026-03-09T11:12:13.082976","MEAN_MOTION":15.69757552,"ECCENTRICITY":0.00016287,"INCLINATION":53.1579,"RA_OF_ASC_NODE":72.7128,"ARG_OF_PERICENTER":131.7622,"MEAN_ANOMALY":228.3535,"EPHEMERIS_TYPE":0,"CLASSIFICATION_TYPE":"U","NORAD_CAT_ID":62067,"ELEMENT_SET_NO":999,"REV_AT_EPOCH":7506,"BSTAR":0.0010827502,"MEAN_MOTION_DOT":0.0013297,"MEAN_MOTION_DDOT":0}]
